[{"OBJECT_NAME":"FENGYUN 1C DEB","OBJECT_ID":"1999-025ELB","EPOCH":"2026-04-02T07:32:20.141664","MEAN_MOTION":13.35467109,"ECCENTRICITY":0.03966647,"INCLINATION":99.017,"RA_OF_ASC_NODE":103.1215,"ARG_OF_PERICENTER":127.7732,"MEAN_ANOMALY":253.7833,"EPHEMERIS_TYPE":0,"CLASSIFICATION_TYPE":"U","NORAD_CAT_ID":37686,"ELEMENT_SET_NO":999,"REV_AT_EPOCH":62103,"BSTAR":0.00063829022,"MEAN_MOTION_DOT":4.73e-6,"MEAN_MOTION_DDOT":0},{"OBJECT_NAME":"FENGYUN 1C DEB","OBJECT_ID":"1999-025ELC","EPOCH":"2026-04-03T08:00:38.051136","MEAN_MOTION":13.86527223,"ECCENTRICITY":0.0333108,"INCLINATION":98.188,"RA_OF_ASC_NODE":119.8609,"ARG_OF_PERICENTER":51.5351,"MEAN_ANOMALY":325.1461,"EPHEMERIS_TYPE":0,"CLASSIFICATION_TYPE":"U","NORAD_CAT_ID":37687,"ELEMENT_SET_NO":999,"REV_AT_EPOCH":84800,"BSTAR":0.0058682,"MEAN_MOTION_DOT":0.00010526,"MEAN_MOTION_DDOT":0},{"OBJECT_NAME":"FENGYUN 1C DEB","OBJECT_ID":"1999-025ELE","EPOCH":"2026-04-05T14:08:06.530208","MEAN_MOTION":14.50870736,"ECCENTRICITY":0.00188169,"INCLINATION":98.9102,"RA_OF_ASC_NODE":148.0468,"ARG_OF_PERICENTER":249.6115,"MEAN_ANOMALY":110.3056,"EPHEMERIS_TYPE":0,"CLASSIFICATION_TYPE":"U","NORAD_CAT_ID":37689,"ELEMENT_SET_NO":999,"REV_AT_EPOCH":59462,"BSTAR":0.0025664533,"MEAN_MOTION_DOT":0.0001011,"MEAN_MOTION_DDOT":0},{"OBJECT_NAME":"FENGYUN 1C DEB","OBJECT_ID":"1999-025ELG","EPOCH":"2026-04-04T11:44:47.939136","MEAN_MOTION":14.62652367,"ECCENTRICITY":0.02633507,"INCLINATION":98.3668,"RA_OF_ASC_NODE":4.4264,"ARG_OF_PERICENTER":159.5076,"MEAN_ANOMALY":201.6932,"EPHEMERIS_TYPE":0,"CLASSIFICATION_TYPE":"U","NORAD_CAT_ID":37691,"ELEMENT_SET_NO":999,"REV_AT_EPOCH":87279,"BSTAR":0.0027273709,"MEAN_MOTION_DOT":0.00022946,"MEAN_MOTION_DDOT":0},{"OBJECT_NAME":"FENGYUN 1C DEB","OBJECT_ID":"1999-025ELJ","EPOCH":"2026-04-02T06:38:32.450208","MEAN_MOTION":14.08760372,"ECCENTRICITY":0.00727018,"INCLINATION":98.6999,"RA_OF_ASC_NODE":93.1493,"ARG_OF_PERICENTER":121.6867,"MEAN_ANOMALY":254.4676,"EPHEMERIS_TYPE":0,"CLASSIFICATION_TYPE":"U","NORAD_CAT_ID":37693,"ELEMENT_SET_NO":999,"REV_AT_EPOCH":63705,"BSTAR":0.00071600421,"MEAN_MOTION_DOT":1.223e-5,"MEAN_MOTION_DDOT":0},{"OBJECT_NAME":"FENGYUN 1C DEB","OBJECT_ID":"1999-025ELK","EPOCH":"2026-04-04T22:42:24.166656","MEAN_MOTION":14.17670051,"ECCENTRICITY":0.01487048,"INCLINATION":98.1873,"RA_OF_ASC_NODE":158.7766,"ARG_OF_PERICENTER":123.635,"MEAN_ANOMALY":48.4449,"EPHEMERIS_TYPE":0,"CLASSIFICATION_TYPE":"U","NORAD_CAT_ID":37694,"ELEMENT_SET_NO":999,"REV_AT_EPOCH":53307,"BSTAR":0.0024440523,"MEAN_MOTION_DOT":5.512e-5,"MEAN_MOTION_DDOT":0},{"OBJECT_NAME":"FENGYUN 1C DEB","OBJECT_ID":"1999-025ELL","EPOCH":"2026-04-05T08:25:55.739712","MEAN_MOTION":13.65460247,"ECCENTRICITY":0.0460495,"INCLINATION":98.1929,"RA_OF_ASC_NODE":126.5935,"ARG_OF_PERICENTER":316.8902,"MEAN_ANOMALY":53.4961,"EPHEMERIS_TYPE":0,"CLASSIFICATION_TYPE":"U","NORAD_CAT_ID":37695,"ELEMENT_SET_NO":999,"REV_AT_EPOCH":90802,"BSTAR":0.0010299278,"MEAN_MOTION_DOT":1.703e-5,"MEAN_MOTION_DDOT":0},{"OBJECT_NAME":"FENGYUN 1C DEB","OBJECT_ID":"1999-025ELY","EPOCH":"2026-04-04T07:33:59.253696","MEAN_MOTION":14.57207369,"ECCENTRICITY":0.01418948,"INCLINATION":100.2111,"RA_OF_ASC_NODE":128.6004,"ARG_OF_PERICENTER":57.9895,"MEAN_ANOMALY":3.0907,"EPHEMERIS_TYPE":0,"CLASSIFICATION_TYPE":"U","NORAD_CAT_ID":37707,"ELEMENT_SET_NO":999,"REV_AT_EPOCH":87205,"BSTAR":0.00087469137,"MEAN_MOTION_DOT":4.463e-5,"MEAN_MOTION_DDOT":0},{"OBJECT_NAME":"FENGYUN 1C DEB","OBJECT_ID":"1999-025EMD","EPOCH":"2026-04-05T04:28:29.192736","MEAN_MOTION":14.36837308,"ECCENTRICITY":0.00789139,"INCLINATION":98.8329,"RA_OF_ASC_NODE":242.0107,"ARG_OF_PERICENTER":19.1711,"MEAN_ANOMALY":158.2306,"EPHEMERIS_TYPE":0,"CLASSIFICATION_TYPE":"U","NORAD_CAT_ID":37712,"ELEMENT_SET_NO":999,"REV_AT_EPOCH":65589,"BSTAR":0.00051540815,"MEAN_MOTION_DOT":1.531e-5,"MEAN_MOTION_DDOT":0},{"OBJECT_NAME":"FENGYUN 1C DEB","OBJECT_ID":"1999-025EMF","EPOCH":"2026-04-05T14:33:50.403168","MEAN_MOTION":14.33613973,"ECCENTRICITY":0.00491871,"INCLINATION":98.8943,"RA_OF_ASC_NODE":215.2971,"ARG_OF_PERICENTER":110.7319,"MEAN_ANOMALY":249.9146,"EPHEMERIS_TYPE":0,"CLASSIFICATION_TYPE":"U","NORAD_CAT_ID":37714,"ELEMENT_SET_NO":999,"REV_AT_EPOCH":59140,"BSTAR":0.0023991123,"MEAN_MOTION_DOT":6.697e-5,"MEAN_MOTION_DDOT":0},{"OBJECT_NAME":"FENGYUN 1C DEB","OBJECT_ID":"1999-025EMG","EPOCH":"2026-04-05T06:09:09.300096","MEAN_MOTION":13.95610676,"ECCENTRICITY":0.0114277,"INCLINATION":98.9571,"RA_OF_ASC_NODE":104.8365,"ARG_OF_PERICENTER":159.7902,"MEAN_ANOMALY":217.2796,"EPHEMERIS_TYPE":0,"CLASSIFICATION_TYPE":"U","NORAD_CAT_ID":37715,"ELEMENT_SET_NO":999,"REV_AT_EPOCH":59387,"BSTAR":0.00060038,"MEAN_MOTION_DOT":8.2e-6,"MEAN_MOTION_DDOT":0},{"OBJECT_NAME":"FENGYUN 1C DEB","OBJECT_ID":"1999-025EMJ","EPOCH":"2026-04-04T04:32:37.087296","MEAN_MOTION":15.03273738,"ECCENTRICITY":0.00503211,"INCLINATION":98.7453,"RA_OF_ASC_NODE":68.3196,"ARG_OF_PERICENTER":97.8444,"MEAN_ANOMALY":277.7091,"EPHEMERIS_TYPE":0,"CLASSIFICATION_TYPE":"U","NORAD_CAT_ID":37717,"ELEMENT_SET_NO":999,"REV_AT_EPOCH":91082,"BSTAR":0.0049916981,"MEAN_MOTION_DOT":0.00070098,"MEAN_MOTION_DDOT":0},{"OBJECT_NAME":"FENGYUN 1C DEB","OBJECT_ID":"1999-025EML","EPOCH":"2026-03-22T08:21:48.054240","MEAN_MOTION":14.57340745,"ECCENTRICITY":0.00426899,"INCLINATION":99.4847,"RA_OF_ASC_NODE":126.1128,"ARG_OF_PERICENTER":323.3367,"MEAN_ANOMALY":97.7527,"EPHEMERIS_TYPE":0,"CLASSIFICATION_TYPE":"U","NORAD_CAT_ID":37719,"ELEMENT_SET_NO":999,"REV_AT_EPOCH":1689,"BSTAR":0.00098248506,"MEAN_MOTION_DOT":4.447e-5,"MEAN_MOTION_DDOT":0},{"OBJECT_NAME":"FENGYUN 1C DEB","OBJECT_ID":"1999-025EMZ","EPOCH":"2026-04-03T01:01:25.337568","MEAN_MOTION":14.04151144,"ECCENTRICITY":0.02078288,"INCLINATION":102.2951,"RA_OF_ASC_NODE":213.2866,"ARG_OF_PERICENTER":319.9201,"MEAN_ANOMALY":38.6776,"EPHEMERIS_TYPE":0,"CLASSIFICATION_TYPE":"U","NORAD_CAT_ID":37900,"ELEMENT_SET_NO":999,"REV_AT_EPOCH":61376,"BSTAR":0.0023349997,"MEAN_MOTION_DOT":4.418e-5,"MEAN_MOTION_DDOT":0},{"OBJECT_NAME":"FENGYUN 1C DEB","OBJECT_ID":"1999-025ENB","EPOCH":"2026-04-04T13:05:49.281792","MEAN_MOTION":13.5311568,"ECCENTRICITY":0.03198805,"INCLINATION":98.6848,"RA_OF_ASC_NODE":306.1377,"ARG_OF_PERICENTER":15.8875,"MEAN_ANOMALY":345.2024,"EPHEMERIS_TYPE":0,"CLASSIFICATION_TYPE":"U","NORAD_CAT_ID":37902,"ELEMENT_SET_NO":999,"REV_AT_EPOCH":64502,"BSTAR":0.002862033,"MEAN_MOTION_DOT":2.608e-5,"MEAN_MOTION_DDOT":0},{"OBJECT_NAME":"FENGYUN 1C DEB","OBJECT_ID":"1999-025ENF","EPOCH":"2026-04-03T08:37:21.130176","MEAN_MOTION":13.80964665,"ECCENTRICITY":0.01640175,"INCLINATION":99.5826,"RA_OF_ASC_NODE":140.9543,"ARG_OF_PERICENTER":95.2599,"MEAN_ANOMALY":327.7265,"EPHEMERIS_TYPE":0,"CLASSIFICATION_TYPE":"U","NORAD_CAT_ID":37906,"ELEMENT_SET_NO":999,"REV_AT_EPOCH":60996,"BSTAR":0.00076744165,"MEAN_MOTION_DOT":8.52e-6,"MEAN_MOTION_DDOT":0}]
