FENGYUN 1C DEB          
1 37686U 99025ELB 26092.31412201  .00000473  00000+0  63829-3 0  9992
2 37686  99.0170 103.1215 0396664 127.7732 253.7833 13.35467109621036
FENGYUN 1C DEB          
1 37687U 99025ELC 26093.33377374  .00010526  00000+0  58682-2 0  9997
2 37687  98.1880 119.8609 0333108  51.5351 325.1461 13.86527223848000
FENGYUN 1C DEB          
1 37689U 99025ELE 26095.58896447  .00010110  00000+0  25665-2 0  9999
2 37689  98.9102 148.0468 0018816 249.6115 110.3056 14.50870736594620
FENGYUN 1C DEB          
1 37691U 99025ELG 26094.48944374  .00022946  00000+0  27274-2 0  9991
2 37691  98.3668   4.4264 0263350 159.5076 201.6932 14.62652367872798
FENGYUN 1C DEB          
1 37693U 99025ELJ 26092.27676447  .00001223  00000+0  71600-3 0  9999
2 37693  98.6999  93.1493 0072701 121.6867 254.4676 14.08760372637050
FENGYUN 1C DEB          
1 37694U 99025ELK 26094.94611304  .00005512  00000+0  24441-2 0  9992
2 37694  98.1873 158.7766 0148704 123.6350  48.4449 14.17670051533074
FENGYUN 1C DEB          
1 37695U 99025ELL 26095.35133958  .00001703  00000+0  10299-2 0  9997
2 37695  98.1929 126.5935 0460495 316.8902  53.4961 13.65460247908023
FENGYUN 1C DEB          
1 37707U 99025ELY 26094.31526914  .00004463  00000+0  87469-3 0  9994
2 37707 100.2111 128.6004 0141894  57.9895   3.0907 14.57207369872058
FENGYUN 1C DEB          
1 37712U 99025EMD 26095.18644899  .00001531  00000+0  51541-3 0  9994
2 37712  98.8329 242.0107 0078913  19.1711 158.2306 14.36837308655896
FENGYUN 1C DEB          
1 37714U 99025EMF 26095.60683337  .00006697  00000+0  23991-2 0  9998
2 37714  98.8943 215.2971 0049187 110.7319 249.9146 14.33613973591407
FENGYUN 1C DEB          
1 37715U 99025EMG 26095.25635764  .00000820  00000+0  60038-3 0  9997
2 37715  98.9571 104.8365 0114277 159.7902 217.2796 13.95610676593876
FENGYUN 1C DEB          
1 37717U 99025EMJ 26094.18931814  .00070098  00000+0  49917-2 0  9991
2 37717  98.7453  68.3196 0050321  97.8444 277.7091 15.03273738910825
FENGYUN 1C DEB          
1 37719U 99025EML 26081.34847285  .00004447  00000+0  98249-3 0  9993
2 37719  99.4847 126.1128 0042689 323.3367  97.7527 14.57340745 16898
FENGYUN 1C DEB          
1 37900U 99025EMZ 26093.04265437  .00004418  00000+0  23350-2 0  9996
2 37900 102.2951 213.2866 0207828 319.9201  38.6776 14.04151144613766
FENGYUN 1C DEB          
1 37902U 99025ENB 26094.54570928  .00002608  00000+0  28620-2 0  9992
2 37902  98.6848 306.1377 0319880  15.8875 345.2024 13.53115680645026
FENGYUN 1C DEB          
1 37906U 99025ENF 26093.35927234  .00000852  00000+0  76744-3 0  9990
2 37906  99.5826 140.9543 0164017  95.2599 327.7265 13.80964665609960
